CTC1_L_00616001-01
1 17346U 25354LJ  26070.40841435  .00000000  00000+0  00000-0 0  9993
2 17346  65.0000   0.0000 0000000   0.0000   0.0000  4.78387620    10
CTC1_L_00616001-02
1 17347U 22261I   26070.40841435  .00000000  00000+0  00000-0 0  9998
2 17347  65.0000   0.0000 0000000   0.0000  36.0000  4.78387620    10
CTC1_L_00616001-03
1 17348U 25990LM  26070.40841435  .00000000  00000+0  00000-0 0  9991
2 17348  65.0000   0.0000 0000000   0.0000  72.0000  4.78387620    11
CTC1_L_00616001-04
1 17349U 22898NJ  26070.40841435  .00000000  00000+0  00000-0 0  9996
2 17349  65.0000   0.0000 0000000   0.0000 108.0000  4.78387620    12
CTC1_L_00616001-05
1 17350U 22104MS  26070.40841435  .00000000  00000+0  00000-0 0  9998
2 17350  65.0000   0.0000 0000000   0.0000 144.0000  4.78387620    14
CTC1_L_00616001-06
1 17351U 22781LG  26070.40841435  .00000000  00000+0  00000-0 0  9990
2 17351  65.0000   0.0000 0000000   0.0000 180.0000  4.78387620    15
CTC1_L_00616001-07
1 17352U 23908PZ  26070.40841435  .00000000  00000+0  00000-0 0  9993
2 17352  65.0000   0.0000 0000000   0.0000 216.0000  4.78387620    16
CTC1_L_00616001-08
1 17353U 23489DJ  26070.40841435  .00000000  00000+0  00000-0 0  9998
2 17353  65.0000   0.0000 0000000   0.0000 252.0000  4.78387620    17
CTC1_L_00616001-09
1 17354U 22346RQ  26070.40841435  .00000000  00000+0  00000-0 0  9990
2 17354  65.0000   0.0000 0000000   0.0000 288.0000  4.78387620    17
CTC1_L_00616001-10
1 17355U 22912IB  26070.40841435  .00000000  00000+0  00000-0 0  9990
2 17355  65.0000   0.0000 0000000   0.0000 324.0000  4.78387620    19
CTC1_L_00616002-01
1 17356U 22455QK  26070.40841435  .00000000  00000+0  00000-0 0  9993
2 17356  65.0000  30.0000 0000000   0.0000  12.0000  4.78387620    17
CTC1_L_00616002-02
1 17357U 22624BF  26070.40841435  .00000000  00000+0  00000-0 0  9992
2 17357  65.0000  30.0000 0000000   0.0000  48.0000  4.78387620    17
CTC1_L_00616002-03
1 17358U 26180SG  26070.40841435  .00000000  00000+0  00000-0 0  9994
2 17358  65.0000  30.0000 0000000   0.0000  84.0000  4.78387620    18
CTC1_L_00616002-04
1 17359U 24368UA  26070.40841435  .00000000  00000+0  00000-0 0  9991
2 17359  65.0000  30.0000 0000000   0.0000 120.0000  4.78387620    10
CTC1_L_00616002-05
1 17360U 23334FX  26070.40841435  .00000000  00000+0  00000-0 0  9995
2 17360  65.0000  30.0000 0000000   0.0000 156.0000  4.78387620    11
CTC1_L_00616002-06
1 17361U 26965GZ  26070.40841435  .00000000  00000+0  00000-0 0  9999
2 17361  65.0000  30.0000 0000000   0.0000 192.0000  4.78387620    12
CTC1_L_00616002-07
1 17362U 22108DH  26070.40841435  .00000000  00000+0  00000-0 0  9995
2 17362  65.0000  30.0000 0000000   0.0000 228.0000  4.78387620    13
CTC1_L_00616002-08
1 17363U 22583JU  26070.40841435  .00000000  00000+0  00000-0 0  9993
2 17363  65.0000  30.0000 0000000   0.0000 264.0000  4.78387620    14
CTC1_L_00616002-09
1 17364U 24050NL  26070.40841435  .00000000  00000+0  00000-0 0  9995
2 17364  65.0000  30.0000 0000000   0.0000 300.0000  4.78387620    16
CTC1_L_00616002-10
1 17365U 25915AZ  26070.40841435  .00000000  00000+0  00000-0 0  9997
2 17365  65.0000  30.0000 0000000   0.0000 336.0000  4.78387620    16
CTC1_L_00616003-01
1 17366U 26671QN  26070.40841435  .00000000  00000+0  00000-0 0  9998
2 17366  65.0000  60.0000 0000000   0.0000  24.0000  4.78387620    14
CTC1_L_00616003-02
1 17367U 23245ZJ  26070.40841435  .00000000  00000+0  00000-0 0  9993
2 17367  65.0000  60.0000 0000000   0.0000  60.0000  4.78387620    15
CTC1_L_00616003-03
1 17368U 24794EU  26070.40841435  .00000000  00000+0  00000-0 0  9994
2 17368  65.0000  60.0000 0000000   0.0000  96.0000  4.78387620    15
CTC1_L_00616003-04
1 17369U 23003ZW  26070.40841435  .00000000  00000+0  00000-0 0  9997
2 17369  65.0000  60.0000 0000000   0.0000 132.0000  4.78387620    17
CTC1_L_00616003-05
1 17370U 26013QC  26070.40841435  .00000000  00000+0  00000-0 0  9993
2 17370  65.0000  60.0000 0000000   0.0000 168.0000  4.78387620    18
CTC1_L_00616003-06
1 17371U 22538ED  26070.40841435  .00000000  00000+0  00000-0 0  9992
2 17371  65.0000  60.0000 0000000   0.0000 204.0000  4.78387620    10
CTC1_L_00616003-07
1 17372U 25971IL  26070.40841435  .00000000  00000+0  00000-0 0  9997
2 17372  65.0000  60.0000 0000000   0.0000 240.0000  4.78387620    11
CTC1_L_00616003-08
1 17373U 25072PO  26070.40841435  .00000000  00000+0  00000-0 0  9990
2 17373  65.0000  60.0000 0000000   0.0000 276.0000  4.78387620    11
CTC1_L_00616003-09
1 17374U 24838FL  26070.40841435  .00000000  00000+0  00000-0 0  9990
2 17374  65.0000  60.0000 0000000   0.0000 312.0000  4.78387620    13
CTC1_L_00616003-10
1 17375U 22596VT  26070.40841435  .00000000  00000+0  00000-0 0  9990
2 17375  65.0000  60.0000 0000000   0.0000 348.0000  4.78387620    13
CTC1_L_00616004-01
1 17376U 24336AS  26070.40841435  .00000000  00000+0  00000-0 0  9995
2 17376  65.0000  90.0000 0000000   0.0000  36.0000  4.78387620    11
CTC1_L_00616004-02
1 17377U 24542AB  26070.40841435  .00000000  00000+0  00000-0 0  9995
2 17377  65.0000  90.0000 0000000   0.0000  72.0000  4.78387620    12
CTC1_L_00616004-03
1 17378U 26644YJ  26070.40841435  .00000000  00000+0  00000-0 0  9991
2 17378  65.0000  90.0000 0000000   0.0000 108.0000  4.78387620    13
CTC1_L_00616004-04
1 17379U 22487UQ  26070.40841435  .00000000  00000+0  00000-0 0  9993
2 17379  65.0000  90.0000 0000000   0.0000 144.0000  4.78387620    14
CTC1_L_00616004-05
1 17380U 22057ZS  26070.40841435  .00000000  00000+0  00000-0 0  9998
2 17380  65.0000  90.0000 0000000   0.0000 180.0000  4.78387620    16
CTC1_L_00616004-06
1 17381U 26308WA  26070.40841435  .00000000  00000+0  00000-0 0  9992
2 17381  65.0000  90.0000 0000000   0.0000 216.0000  4.78387620    17
CTC1_L_00616004-07
1 17382U 24502YJ  26070.40841435  .00000000  00000+0  00000-0 0  9997
2 17382  65.0000  90.0000 0000000   0.0000 252.0000  4.78387620    18
CTC1_L_00616004-08
1 17383U 24210WQ  26070.40841435  .00000000  00000+0  00000-0 0  9994
2 17383  65.0000  90.0000 0000000   0.0000 288.0000  4.78387620    18
CTC1_L_00616004-09
1 17384U 26229LN  26070.40841435  .00000000  00000+0  00000-0 0  9997
2 17384  65.0000  90.0000 0000000   0.0000 324.0000  4.78387620    10
CTC1_L_00616004-10
1 17385U 26720X   26070.40841435  .00000000  00000+0  00000-0 0  9994
2 17385  65.0000  90.0000 0000000   0.0000   0.0000  4.78387620    12
CTC1_L_00616005-01
1 17386U 22566MT  26070.40841435  .00000000  00000+0  00000-0 0  9999
2 17386  65.0000 120.0000 0000000   0.0000  48.0000  4.78387620    19
CTC1_L_00616005-02
1 17387U 23145EC  26070.40841435  .00000000  00000+0  00000-0 0  9994
2 17387  65.0000 120.0000 0000000   0.0000  84.0000  4.78387620    10
CTC1_L_00616005-03
1 17388U 23427LP  26070.40841435  .00000000  00000+0  00000-0 0  9998
2 17388  65.0000 120.0000 0000000   0.0000 120.0000  4.78387620    12
CTC1_L_00616005-04
1 17389U 25335NN  26070.40841435  .00000000  00000+0  00000-0 0  9999
2 17389  65.0000 120.0000 0000000   0.0000 156.0000  4.78387620    12
CTC1_L_00616005-05
1 17390U 24061LO  26070.40841435  .00000000  00000+0  00000-0 0  9996
2 17390  65.0000 120.0000 0000000   0.0000 192.0000  4.78387620    14
CTC1_L_00616005-06
1 17391U 24718FR  26070.40841435  .00000000  00000+0  00000-0 0  9996
2 17391  65.0000 120.0000 0000000   0.0000 228.0000  4.78387620    15
CTC1_L_00616005-07
1 17392U 25508NK  26070.40841435  .00000000  00000+0  00000-0 0  9995
2 17392  65.0000 120.0000 0000000   0.0000 264.0000  4.78387620    16
CTC1_L_00616005-08
1 17393U 26843BP  26070.40841435  .00000000  00000+0  00000-0 0  9999
2 17393  65.0000 120.0000 0000000   0.0000 300.0000  4.78387620    18
CTC1_L_00616005-09
1 17394U 26114TM  26070.40841435  .00000000  00000+0  00000-0 0  9991
2 17394  65.0000 120.0000 0000000   0.0000 336.0000  4.78387620    18
CTC1_L_00616005-10
1 17395U 25575VO  26070.40841435  .00000000  00000+0  00000-0 0  9992
2 17395  65.0000 120.0000 0000000   0.0000  12.0000  4.78387620    10
CTC1_L_00616006-01
1 17396U 25475EP  26070.40841435  .00000000  00000+0  00000-0 0  9992
2 17396  65.0000 150.0000 0000000   0.0000  60.0000  4.78387620    17
CTC1_L_00616006-02
1 17397U 26745YN  26070.40841435  .00000000  00000+0  00000-0 0  9994
2 17397  65.0000 150.0000 0000000   0.0000  96.0000  4.78387620    17
CTC1_L_00616006-03
1 17398U 22655PV  26070.40841435  .00000000  00000+0  00000-0 0  9991
2 17398  65.0000 150.0000 0000000   0.0000 132.0000  4.78387620    19
CTC1_L_00616006-04
1 17399U 24535RY  26070.40841435  .00000000  00000+0  00000-0 0  9991
2 17399  65.0000 150.0000 0000000   0.0000 168.0000  4.78387620    19
CTC1_L_00616006-05
1 17400U 24118JA  26070.40841435  .00000000  00000+0  00000-0 0  9991
2 17400  65.0000 150.0000 0000000   0.0000 204.0000  4.78387620    13
CTC1_L_00616006-06
1 17401U 25743J   26070.40841435  .00000000  00000+0  00000-0 0  9997
2 17401  65.0000 150.0000 0000000   0.0000 240.0000  4.78387620    14
CTC1_L_00616006-07
1 17402U 24719X   26070.40841435  .00000000  00000+0  00000-0 0  9990
2 17402  65.0000 150.0000 0000000   0.0000 276.0000  4.78387620    14
CTC1_L_00616006-08
1 17403U 26944IQ  26070.40841435  .00000000  00000+0  00000-0 0  9993
2 17403  65.0000 150.0000 0000000   0.0000 312.0000  4.78387620    16
CTC1_L_00616006-09
1 17404U 26903LI  26070.40841435  .00000000  00000+0  00000-0 0  9999
2 17404  65.0000 150.0000 0000000   0.0000 348.0000  4.78387620    16
CTC1_L_00616006-10
1 17405U 22125IQ  26070.40841435  .00000000  00000+0  00000-0 0  9992
2 17405  65.0000 150.0000 0000000   0.0000  24.0000  4.78387620    18
CTC1_L_00616007-01
1 17406U 24483QY  26070.40841435  .00000000  00000+0  00000-0 0  9992
2 17406  65.0000 180.0000 0000000   0.0000  72.0000  4.78387620    15
CTC1_L_00616007-02
1 17407U 24613WN  26070.40841435  .00000000  00000+0  00000-0 0  9998
2 17407  65.0000 180.0000 0000000   0.0000 108.0000  4.78387620    16
